[
    {
      "pincode": "689645",
      "district": "Pathanamthitta",
      "state": "Kerala",
      "officeName": "Makkankunnu S.O",
      "taluk": "Kozhenchery"
    },
    {
      "pincode": "689645",
      "district": "Pathanamthitta",
      "state": "Kerala",
      "officeName": "Pathanamthitta H.O",
      "taluk": "Kozhenchery"
    },
    {
      "pincode": "682001",
      "district": "Ernakulam",
      "state": "Kerala",
      "officeName": "Ernakulam H.O",
      "taluk": "Ernakulam"
    },
    {
      "pincode": "695014",
      "district": "Thiruvananthapuram",
      "state": "Kerala",
      "officeName": "Pattom B.O",
      "taluk": "Thiruvananthapuram"
    },
    {
      "pincode": "695001",
      "district": "Thiruvananthapuram",
      "state": "Kerala",
      "officeName": "Thiruvananthapuram GPO",
      "taluk": "Thiruvananthapuram"
    },
    {
      "pincode": "673001",
      "district": "Kozhikode",
      "state": "Kerala",
      "officeName": "Kozhikode H.O",
      "taluk": "Kozhikode"
    },
    {
      "pincode": "680001",
      "district": "Thrissur",
      "state": "Kerala",
      "officeName": "Thrissur H.O",
      "taluk": "Thrissur"
    },
    {
      "pincode": "695017",
      "district": "Thiruvananthapuram",
      "state": "Kerala",
      "officeName": "Kowdiar B.O",
      "taluk": "Thiruvananthapuram"
    },
    {
      "pincode": "682020",
      "district": "Ernakulam",
      "state": "Kerala",
      "officeName": "Vyttila S.O",
      "taluk": "Kochi"
    },
    {
      "pincode": "691001",
      "district": "Kollam",
      "state": "Kerala",
      "officeName": "Kollam H.O",
      "taluk": "Kollam"
    },
    {
      "pincode": "695582",
      "district": "Thiruvananthapuram",
      "state": "Kerala",
      "officeName": "Nedumangad S.O",
      "taluk": "Nedumangad"
    },
    {
      "pincode": "670001",
      "district": "Kannur",
      "state": "Kerala",
      "officeName": "Kannur H.O",
      "taluk": "Kannur"
    },
    {
      "pincode": "673592",
      "district": "Wayanad",
      "state": "Kerala",
      "officeName": "Kalpetta S.O",
      "taluk": "Vythiri"
    },
    {
      "pincode": "685509",
      "district": "Idukki",
      "state": "Kerala",
      "officeName": "Munnar B.O",
      "taluk": "Devikulam"
    },
    {
      "pincode": "676121",
      "district": "Malappuram",
      "state": "Kerala",
      "officeName": "Manjeri H.O",
      "taluk": "Ernad"
    },
    {
      "pincode": "690101",
      "district": "Alappuzha",
      "state": "Kerala",
      "officeName": "Alappuzha H.O",
      "taluk": "Ambalappuzha"
    },
    {
      "pincode": "680121",
      "district": "Thrissur",
      "state": "Kerala",
      "officeName": "Guruvayur S.O",
      "taluk": "Chavakkad"
    }
  ]
  